;13.0 10.0 inch
;N1.0
;Food On
;(Polyline consisting of 1 segments.)
G92 X-326 Y-194
G4 P5
G1 X-161.89 Y122.91 F18000
G1 X-161.89 Y122.91 Z10.0 F18000.0
G4 P0
;Ex Down
G4 P0
;Shaft Up
G4 P0
G1 X-149.19 Y122.91 Z10.0 F18000.0
G1 X-136.49 Y122.91 Z10.0 F18000.0
G1 X-123.79 Y122.91 Z10.0 F18000.0
G1 X-111.09 Y122.91 Z10.0 F18000.0
G1 X-98.39 Y122.91 Z10.0 F18000.0
G1 X-85.69 Y122.91 Z10.0 F18000.0
G1 X-72.99 Y122.91 Z10.0 F18000.0
G1 X-60.29 Y122.91 Z10.0 F18000.0
G1 X-47.59 Y122.91 Z10.0 F18000.0
G1 X-34.89 Y122.91 Z10.0 F18000.0
G1 X-22.19 Y122.91 Z10.0 F18000.0
G1 X-9.49 Y122.91 Z10.0 F18000.0
G1 X3.21 Y122.91 Z10.0 F18000.0
G1 X15.91 Y122.91 Z10.0 F18000.0
G1 X28.61 Y122.91 Z10.0 F18000.0
G1 X41.31 Y122.91 Z10.0 F18000.0
G1 X54.01 Y122.91 Z10.0 F18000.0
G1 X66.71 Y122.91 Z10.0 F18000.0
G1 X79.41 Y122.91 Z10.0 F18000.0
G1 X92.11 Y122.91 Z10.0 F18000.0
G1 X104.81 Y122.91 Z10.0 F18000.0
G1 X117.51 Y122.91 Z10.0 F18000.0
G1 X130.21 Y122.91 Z10.0 F18000.0
G1 X142.91 Y122.91 Z10.0 F18000.0
G1 X155.61 Y122.91 Z10.0 F18000.0
G1 X160.98 Y122.91 Z10.0 F18000.0
G1 X160.98 Y110.21 Z10.0 F18000.0
G1 X160.98 Y97.51 Z10.0 F18000.0
G1 X160.98 Y84.81 Z10.0 F18000.0
G1 X160.98 Y72.11 Z10.0 F18000.0
G1 X160.98 Y59.41 Z10.0 F18000.0
G1 X160.98 Y46.71 Z10.0 F18000.0
G1 X160.98 Y34.01 Z10.0 F18000.0
G1 X160.98 Y21.31 Z10.0 F18000.0
G1 X160.98 Y8.61 Z10.0 F18000.0
G1 X160.98 Y-4.09 Z10.0 F18000.0
G1 X160.98 Y-16.79 Z10.0 F18000.0
G1 X160.98 Y-29.49 Z10.0 F18000.0
G1 X160.98 Y-42.19 Z10.0 F18000.0
G1 X160.98 Y-54.89 Z10.0 F18000.0
G1 X160.98 Y-67.59 Z10.0 F18000.0
G1 X160.98 Y-80.29 Z10.0 F18000.0
G1 X160.98 Y-92.99 Z10.0 F18000.0
G1 X160.98 Y-105.69 Z10.0 F18000.0
G1 X160.98 Y-118.39 Z10.0 F18000.0
G1 X160.98 Y-124.08 Z10.0 F18000.0
G1 X148.28 Y-124.08 Z10.0 F18000.0
G1 X135.58 Y-124.08 Z10.0 F18000.0
G1 X122.88 Y-124.08 Z10.0 F18000.0
G1 X110.18 Y-124.08 Z10.0 F18000.0
G1 X97.48 Y-124.08 Z10.0 F18000.0
G1 X84.78 Y-124.08 Z10.0 F18000.0
G1 X72.08 Y-124.08 Z10.0 F18000.0
G1 X59.38 Y-124.08 Z10.0 F18000.0
G1 X46.68 Y-124.08 Z10.0 F18000.0
G1 X33.98 Y-124.08 Z10.0 F18000.0
G1 X21.28 Y-124.08 Z10.0 F18000.0
G1 X8.58 Y-124.08 Z10.0 F18000.0
G1 X-4.12 Y-124.08 Z10.0 F18000.0
G1 X-16.82 Y-124.08 Z10.0 F18000.0
G1 X-29.52 Y-124.08 Z10.0 F18000.0
G1 X-42.22 Y-124.08 Z10.0 F18000.0
G1 X-54.92 Y-124.08 Z10.0 F18000.0
G1 X-67.62 Y-124.08 Z10.0 F18000.0
G1 X-80.32 Y-124.08 Z10.0 F18000.0
G1 X-93.02 Y-124.08 Z10.0 F18000.0
G1 X-105.72 Y-124.08 Z10.0 F18000.0
G1 X-118.42 Y-124.08 Z10.0 F18000.0
G1 X-131.12 Y-124.08 Z10.0 F18000.0
G1 X-143.82 Y-124.08 Z10.0 F18000.0
G1 X-156.52 Y-124.08 Z10.0 F18000.0
G1 X-161.89 Y-124.08 Z10.0 F18000.0
G1 X-161.89 Y-111.38 Z10.0 F18000.0
G1 X-161.89 Y-98.68 Z10.0 F18000.0
G1 X-161.89 Y-85.98 Z10.0 F18000.0
G1 X-161.89 Y-73.28 Z10.0 F18000.0
G1 X-161.89 Y-60.58 Z10.0 F18000.0
G1 X-161.89 Y-47.88 Z10.0 F18000.0
G1 X-161.89 Y-35.18 Z10.0 F18000.0
G1 X-161.89 Y-22.48 Z10.0 F18000.0
G1 X-161.89 Y-9.78 Z10.0 F18000.0
G1 X-161.89 Y2.92 Z10.0 F18000.0
G1 X-161.89 Y15.62 Z10.0 F18000.0
G1 X-161.89 Y28.32 Z10.0 F18000.0
G1 X-161.89 Y41.02 Z10.0 F18000.0
G1 X-161.89 Y53.72 Z10.0 F18000.0
G1 X-161.89 Y66.42 Z10.0 F18000.0
G1 X-161.89 Y79.12 Z10.0 F18000.0
G1 X-161.89 Y91.82 Z10.0 F18000.0
G1 X-161.89 Y104.52 Z10.0 F18000.0
G1 X-161.89 Y117.22 Z10.0 F18000.0
G1 X-161.89 Y122.91 Z10.0 F18000.0
G4 P0
;Shaft Down
G4 P0
G1 X-161.89 Y122.91 Z10 F18000.0
G4 P0

;(Polyline consisting of 1 segments.)
G1 X151.02 Y-114.12 F18000
G1 X151.02 Y-114.12 Z10.0 F18000.0
G4 P0
;Shaft Up
G4 P0
G1 X138.32 Y-114.12 Z10.0 F18000.0
G1 X125.62 Y-114.12 Z10.0 F18000.0
G1 X112.92 Y-114.12 Z10.0 F18000.0
G1 X100.22 Y-114.12 Z10.0 F18000.0
G1 X87.52 Y-114.12 Z10.0 F18000.0
G1 X74.82 Y-114.12 Z10.0 F18000.0
G1 X62.12 Y-114.12 Z10.0 F18000.0
G1 X49.42 Y-114.12 Z10.0 F18000.0
G1 X36.72 Y-114.12 Z10.0 F18000.0
G1 X24.02 Y-114.12 Z10.0 F18000.0
G1 X11.32 Y-114.12 Z10.0 F18000.0
G1 X-1.38 Y-114.12 Z10.0 F18000.0
G1 X-14.08 Y-114.12 Z10.0 F18000.0
G1 X-26.78 Y-114.12 Z10.0 F18000.0
G1 X-39.48 Y-114.12 Z10.0 F18000.0
G1 X-52.18 Y-114.12 Z10.0 F18000.0
G1 X-64.88 Y-114.12 Z10.0 F18000.0
G1 X-77.58 Y-114.12 Z10.0 F18000.0
G1 X-90.28 Y-114.12 Z10.0 F18000.0
G1 X-102.98 Y-114.12 Z10.0 F18000.0
G1 X-115.68 Y-114.12 Z10.0 F18000.0
G1 X-128.38 Y-114.12 Z10.0 F18000.0
G1 X-141.08 Y-114.12 Z10.0 F18000.0
G1 X-151.93 Y-114.12 Z10.0 F18000.0
G1 X-151.93 Y-101.42 Z10.0 F18000.0
G1 X-151.93 Y-88.72 Z10.0 F18000.0
G1 X-151.93 Y-76.02 Z10.0 F18000.0
G1 X-151.93 Y-63.32 Z10.0 F18000.0
G1 X-151.93 Y-50.62 Z10.0 F18000.0
G1 X-151.93 Y-37.92 Z10.0 F18000.0
G1 X-151.93 Y-25.22 Z10.0 F18000.0
G1 X-151.93 Y-12.52 Z10.0 F18000.0
G1 X-151.93 Y0.18 Z10.0 F18000.0
G1 X-151.93 Y12.88 Z10.0 F18000.0
G1 X-151.93 Y25.58 Z10.0 F18000.0
G1 X-151.93 Y38.28 Z10.0 F18000.0
G1 X-151.93 Y50.98 Z10.0 F18000.0
G1 X-151.93 Y63.68 Z10.0 F18000.0
G1 X-151.93 Y76.38 Z10.0 F18000.0
G1 X-151.93 Y89.08 Z10.0 F18000.0
G1 X-151.93 Y101.78 Z10.0 F18000.0
G1 X-151.93 Y112.95 Z10.0 F18000.0
G1 X-139.23 Y112.95 Z10.0 F18000.0
G1 X-126.53 Y112.95 Z10.0 F18000.0
G1 X-113.83 Y112.95 Z10.0 F18000.0
G1 X-101.13 Y112.95 Z10.0 F18000.0
G1 X-88.43 Y112.95 Z10.0 F18000.0
G1 X-75.73 Y112.95 Z10.0 F18000.0
G1 X-63.03 Y112.95 Z10.0 F18000.0
G1 X-50.33 Y112.95 Z10.0 F18000.0
G1 X-37.63 Y112.95 Z10.0 F18000.0
G1 X-24.93 Y112.95 Z10.0 F18000.0
G1 X-12.23 Y112.95 Z10.0 F18000.0
G1 X0.47 Y112.95 Z10.0 F18000.0
G1 X13.17 Y112.95 Z10.0 F18000.0
G1 X25.87 Y112.95 Z10.0 F18000.0
G1 X38.57 Y112.95 Z10.0 F18000.0
G1 X51.27 Y112.95 Z10.0 F18000.0
G1 X63.97 Y112.95 Z10.0 F18000.0
G1 X76.67 Y112.95 Z10.0 F18000.0
G1 X89.37 Y112.95 Z10.0 F18000.0
G1 X102.07 Y112.95 Z10.0 F18000.0
G1 X114.77 Y112.95 Z10.0 F18000.0
G1 X127.47 Y112.95 Z10.0 F18000.0
G1 X140.17 Y112.95 Z10.0 F18000.0
G1 X151.02 Y112.95 Z10.0 F18000.0
G1 X151.02 Y100.25 Z10.0 F18000.0
G1 X151.02 Y87.55 Z10.0 F18000.0
G1 X151.02 Y74.85 Z10.0 F18000.0
G1 X151.02 Y62.15 Z10.0 F18000.0
G1 X151.02 Y49.45 Z10.0 F18000.0
G1 X151.02 Y36.75 Z10.0 F18000.0
G1 X151.02 Y24.05 Z10.0 F18000.0
G1 X151.02 Y11.35 Z10.0 F18000.0
G1 X151.02 Y-1.35 Z10.0 F18000.0
G1 X151.02 Y-14.05 Z10.0 F18000.0
G1 X151.02 Y-26.75 Z10.0 F18000.0
G1 X151.02 Y-39.45 Z10.0 F18000.0
G1 X151.02 Y-52.15 Z10.0 F18000.0
G1 X151.02 Y-64.85 Z10.0 F18000.0
G1 X151.02 Y-77.55 Z10.0 F18000.0
G1 X151.02 Y-90.25 Z10.0 F18000.0
G1 X151.02 Y-102.95 Z10.0 F18000.0
G1 X151.02 Y-114.12 Z10.0 F18000.0
G4 P0
;Shaft Down
G4 P0
G1 X151.02 Y-114.12 Z10 F18000.0
G4 P0

;(Polyline consisting of 1 segments.)
G1 X141.06 Y-104.16 F18000
G1 X141.06 Y-104.16 Z10.0 F18000.0
G4 P0
;Shaft Up
G4 P0
G1 X128.36 Y-104.16 Z10.0 F18000.0
G1 X115.66 Y-104.16 Z10.0 F18000.0
G1 X102.96 Y-104.16 Z10.0 F18000.0
G1 X90.26 Y-104.16 Z10.0 F18000.0
G1 X77.56 Y-104.16 Z10.0 F18000.0
G1 X64.86 Y-104.16 Z10.0 F18000.0
G1 X52.16 Y-104.16 Z10.0 F18000.0
G1 X39.46 Y-104.16 Z10.0 F18000.0
G1 X26.76 Y-104.16 Z10.0 F18000.0
G1 X14.06 Y-104.16 Z10.0 F18000.0
G1 X1.36 Y-104.16 Z10.0 F18000.0
G1 X-11.34 Y-104.16 Z10.0 F18000.0
G1 X-24.04 Y-104.16 Z10.0 F18000.0
G1 X-36.74 Y-104.16 Z10.0 F18000.0
G1 X-49.44 Y-104.16 Z10.0 F18000.0
G1 X-62.14 Y-104.16 Z10.0 F18000.0
G1 X-74.84 Y-104.16 Z10.0 F18000.0
G1 X-87.54 Y-104.16 Z10.0 F18000.0
G1 X-100.24 Y-104.16 Z10.0 F18000.0
G1 X-112.94 Y-104.16 Z10.0 F18000.0
G1 X-125.64 Y-104.16 Z10.0 F18000.0
G1 X-138.34 Y-104.16 Z10.0 F18000.0
G1 X-141.97 Y-104.16 Z10.0 F18000.0
G1 X-141.97 Y-91.46 Z10.0 F18000.0
G1 X-141.97 Y-78.76 Z10.0 F18000.0
G1 X-141.97 Y-66.06 Z10.0 F18000.0
G1 X-141.97 Y-53.36 Z10.0 F18000.0
G1 X-141.97 Y-40.66 Z10.0 F18000.0
G1 X-141.97 Y-27.96 Z10.0 F18000.0
G1 X-141.97 Y-15.26 Z10.0 F18000.0
G1 X-141.97 Y-2.56 Z10.0 F18000.0
G1 X-141.97 Y10.14 Z10.0 F18000.0
G1 X-141.97 Y22.84 Z10.0 F18000.0
G1 X-141.97 Y35.54 Z10.0 F18000.0
G1 X-141.97 Y48.24 Z10.0 F18000.0
G1 X-141.97 Y60.94 Z10.0 F18000.0
G1 X-141.97 Y73.64 Z10.0 F18000.0
G1 X-141.97 Y86.34 Z10.0 F18000.0
G1 X-141.97 Y99.04 Z10.0 F18000.0
G1 X-141.97 Y102.99 Z10.0 F18000.0
G1 X-129.27 Y102.99 Z10.0 F18000.0
G1 X-116.57 Y102.99 Z10.0 F18000.0
G1 X-103.87 Y102.99 Z10.0 F18000.0
G1 X-91.17 Y102.99 Z10.0 F18000.0
G1 X-78.47 Y102.99 Z10.0 F18000.0
G1 X-65.77 Y102.99 Z10.0 F18000.0
G1 X-53.07 Y102.99 Z10.0 F18000.0
G1 X-40.37 Y102.99 Z10.0 F18000.0
G1 X-27.67 Y102.99 Z10.0 F18000.0
G1 X-14.97 Y102.99 Z10.0 F18000.0
G1 X-2.27 Y102.99 Z10.0 F18000.0
G1 X10.43 Y102.99 Z10.0 F18000.0
G1 X23.13 Y102.99 Z10.0 F18000.0
G1 X35.83 Y102.99 Z10.0 F18000.0
G1 X48.53 Y102.99 Z10.0 F18000.0
G1 X61.23 Y102.99 Z10.0 F18000.0
G1 X73.93 Y102.99 Z10.0 F18000.0
G1 X86.63 Y102.99 Z10.0 F18000.0
G1 X99.33 Y102.99 Z10.0 F18000.0
G1 X112.03 Y102.99 Z10.0 F18000.0
G1 X124.73 Y102.99 Z10.0 F18000.0
G1 X137.43 Y102.99 Z10.0 F18000.0
G1 X141.06 Y102.99 Z10.0 F18000.0
G1 X141.06 Y90.29 Z10.0 F18000.0
G1 X141.06 Y77.59 Z10.0 F18000.0
G1 X141.06 Y64.89 Z10.0 F18000.0
G1 X141.06 Y52.19 Z10.0 F18000.0
G1 X141.06 Y39.49 Z10.0 F18000.0
G1 X141.06 Y26.79 Z10.0 F18000.0
G1 X141.06 Y14.09 Z10.0 F18000.0
G1 X141.06 Y1.39 Z10.0 F18000.0
G1 X141.06 Y-11.31 Z10.0 F18000.0
G1 X141.06 Y-24.01 Z10.0 F18000.0
G1 X141.06 Y-36.71 Z10.0 F18000.0
G1 X141.06 Y-49.41 Z10.0 F18000.0
G1 X141.06 Y-62.11 Z10.0 F18000.0
G1 X141.06 Y-74.81 Z10.0 F18000.0
G1 X141.06 Y-87.51 Z10.0 F18000.0
G1 X141.06 Y-100.21 Z10.0 F18000.0
G1 X141.06 Y-104.16 Z10.0 F18000.0
G4 P0
;Shaft Down
G4 P0
G1 X141.06 Y-104.16 Z10 F18000.0
G4 P0

;(Polyline consisting of 1 segments.)
G1 X131.1 Y-94.2 F18000
G1 X131.1 Y-94.2 Z10.0 F18000.0
G4 P0
;Shaft Up
G4 P0
G1 X118.4 Y-94.2 Z10.0 F18000.0
G1 X105.7 Y-94.2 Z10.0 F18000.0
G1 X93.0 Y-94.2 Z10.0 F18000.0
G1 X80.3 Y-94.2 Z10.0 F18000.0
G1 X67.6 Y-94.2 Z10.0 F18000.0
G1 X54.9 Y-94.2 Z10.0 F18000.0
G1 X42.2 Y-94.2 Z10.0 F18000.0
G1 X29.5 Y-94.2 Z10.0 F18000.0
G1 X16.8 Y-94.2 Z10.0 F18000.0
G1 X4.1 Y-94.2 Z10.0 F18000.0
G1 X-8.6 Y-94.2 Z10.0 F18000.0
G1 X-21.3 Y-94.2 Z10.0 F18000.0
G1 X-34.0 Y-94.2 Z10.0 F18000.0
G1 X-46.7 Y-94.2 Z10.0 F18000.0
G1 X-59.4 Y-94.2 Z10.0 F18000.0
G1 X-72.1 Y-94.2 Z10.0 F18000.0
G1 X-84.8 Y-94.2 Z10.0 F18000.0
G1 X-97.5 Y-94.2 Z10.0 F18000.0
G1 X-110.2 Y-94.2 Z10.0 F18000.0
G1 X-122.9 Y-94.2 Z10.0 F18000.0
G1 X-132.01 Y-94.2 Z10.0 F18000.0
G1 X-132.01 Y-81.5 Z10.0 F18000.0
G1 X-132.01 Y-68.8 Z10.0 F18000.0
G1 X-132.01 Y-56.1 Z10.0 F18000.0
G1 X-132.01 Y-43.4 Z10.0 F18000.0
G1 X-132.01 Y-30.7 Z10.0 F18000.0
G1 X-132.01 Y-18.0 Z10.0 F18000.0
G1 X-132.01 Y-5.3 Z10.0 F18000.0
G1 X-132.01 Y7.4 Z10.0 F18000.0
G1 X-132.01 Y20.1 Z10.0 F18000.0
G1 X-132.01 Y32.8 Z10.0 F18000.0
G1 X-132.01 Y45.5 Z10.0 F18000.0
G1 X-132.01 Y58.2 Z10.0 F18000.0
G1 X-132.01 Y70.9 Z10.0 F18000.0
G1 X-132.01 Y83.6 Z10.0 F18000.0
G1 X-132.01 Y93.02 Z10.0 F18000.0
G1 X-119.31 Y93.02 Z10.0 F18000.0
G1 X-106.61 Y93.02 Z10.0 F18000.0
G1 X-93.91 Y93.02 Z10.0 F18000.0
G1 X-81.21 Y93.02 Z10.0 F18000.0
G1 X-68.51 Y93.02 Z10.0 F18000.0
G1 X-55.81 Y93.02 Z10.0 F18000.0
G1 X-43.11 Y93.02 Z10.0 F18000.0
G1 X-30.41 Y93.02 Z10.0 F18000.0
G1 X-17.71 Y93.02 Z10.0 F18000.0
G1 X-5.01 Y93.02 Z10.0 F18000.0
G1 X7.69 Y93.02 Z10.0 F18000.0
G1 X20.39 Y93.02 Z10.0 F18000.0
G1 X33.09 Y93.02 Z10.0 F18000.0
G1 X45.79 Y93.02 Z10.0 F18000.0
G1 X58.49 Y93.02 Z10.0 F18000.0
G1 X71.19 Y93.02 Z10.0 F18000.0
G1 X83.89 Y93.02 Z10.0 F18000.0
G1 X96.59 Y93.02 Z10.0 F18000.0
G1 X109.29 Y93.02 Z10.0 F18000.0
G1 X121.99 Y93.02 Z10.0 F18000.0
G1 X131.1 Y93.02 Z10.0 F18000.0
G1 X131.1 Y80.32 Z10.0 F18000.0
G1 X131.1 Y67.62 Z10.0 F18000.0
G1 X131.1 Y54.92 Z10.0 F18000.0
G1 X131.1 Y42.22 Z10.0 F18000.0
G1 X131.1 Y29.52 Z10.0 F18000.0
G1 X131.1 Y16.82 Z10.0 F18000.0
G1 X131.1 Y4.12 Z10.0 F18000.0
G1 X131.1 Y-8.58 Z10.0 F18000.0
G1 X131.1 Y-21.28 Z10.0 F18000.0
G1 X131.1 Y-33.98 Z10.0 F18000.0
G1 X131.1 Y-46.68 Z10.0 F18000.0
G1 X131.1 Y-59.38 Z10.0 F18000.0
G1 X131.1 Y-72.08 Z10.0 F18000.0
G1 X131.1 Y-84.78 Z10.0 F18000.0
G1 X131.1 Y-94.2 Z10.0 F18000.0
G4 P0
;Shaft Down
G4 P0
G1 X131.1 Y-94.2 Z10 F18000.0
G4 P0

;(Polyline consisting of 1 segments.)
G1 X121.14 Y-84.23 F18000
G1 X121.14 Y-84.23 Z10.0 F18000.0
G4 P0
;Shaft Up
G4 P0
G1 X108.44 Y-84.23 Z10.0 F18000.0
G1 X95.74 Y-84.23 Z10.0 F18000.0
G1 X83.04 Y-84.23 Z10.0 F18000.0
G1 X70.34 Y-84.23 Z10.0 F18000.0
G1 X57.64 Y-84.23 Z10.0 F18000.0
G1 X44.94 Y-84.23 Z10.0 F18000.0
G1 X32.24 Y-84.23 Z10.0 F18000.0
G1 X19.54 Y-84.23 Z10.0 F18000.0
G1 X6.84 Y-84.23 Z10.0 F18000.0
G1 X-5.86 Y-84.23 Z10.0 F18000.0
G1 X-18.56 Y-84.23 Z10.0 F18000.0
G1 X-31.26 Y-84.23 Z10.0 F18000.0
G1 X-43.96 Y-84.23 Z10.0 F18000.0
G1 X-56.66 Y-84.23 Z10.0 F18000.0
G1 X-69.36 Y-84.23 Z10.0 F18000.0
G1 X-82.06 Y-84.23 Z10.0 F18000.0
G1 X-94.76 Y-84.23 Z10.0 F18000.0
G1 X-107.46 Y-84.23 Z10.0 F18000.0
G1 X-120.16 Y-84.23 Z10.0 F18000.0
G1 X-122.05 Y-84.23 Z10.0 F18000.0
G1 X-122.05 Y-71.53 Z10.0 F18000.0
G1 X-122.05 Y-58.83 Z10.0 F18000.0
G1 X-122.05 Y-46.13 Z10.0 F18000.0
G1 X-122.05 Y-33.43 Z10.0 F18000.0
G1 X-122.05 Y-20.73 Z10.0 F18000.0
G1 X-122.05 Y-8.03 Z10.0 F18000.0
G1 X-122.05 Y4.67 Z10.0 F18000.0
G1 X-122.05 Y17.37 Z10.0 F18000.0
G1 X-122.05 Y30.07 Z10.0 F18000.0
G1 X-122.05 Y42.77 Z10.0 F18000.0
G1 X-122.05 Y55.47 Z10.0 F18000.0
G1 X-122.05 Y68.17 Z10.0 F18000.0
G1 X-122.05 Y80.87 Z10.0 F18000.0
G1 X-122.05 Y83.06 Z10.0 F18000.0
G1 X-109.35 Y83.06 Z10.0 F18000.0
G1 X-96.65 Y83.06 Z10.0 F18000.0
G1 X-83.95 Y83.06 Z10.0 F18000.0
G1 X-71.25 Y83.06 Z10.0 F18000.0
G1 X-58.55 Y83.06 Z10.0 F18000.0
G1 X-45.85 Y83.06 Z10.0 F18000.0
G1 X-33.15 Y83.06 Z10.0 F18000.0
G1 X-20.45 Y83.06 Z10.0 F18000.0
G1 X-7.75 Y83.06 Z10.0 F18000.0
G1 X4.95 Y83.06 Z10.0 F18000.0
G1 X17.65 Y83.06 Z10.0 F18000.0
G1 X30.35 Y83.06 Z10.0 F18000.0
G1 X43.05 Y83.06 Z10.0 F18000.0
G1 X55.75 Y83.06 Z10.0 F18000.0
G1 X68.45 Y83.06 Z10.0 F18000.0
G1 X81.15 Y83.06 Z10.0 F18000.0
G1 X93.85 Y83.06 Z10.0 F18000.0
G1 X106.55 Y83.06 Z10.0 F18000.0
G1 X119.25 Y83.06 Z10.0 F18000.0
G1 X121.14 Y83.06 Z10.0 F18000.0
G1 X121.14 Y70.36 Z10.0 F18000.0
G1 X121.14 Y57.66 Z10.0 F18000.0
G1 X121.14 Y44.96 Z10.0 F18000.0
G1 X121.14 Y32.26 Z10.0 F18000.0
G1 X121.14 Y19.56 Z10.0 F18000.0
G1 X121.14 Y6.86 Z10.0 F18000.0
G1 X121.14 Y-5.84 Z10.0 F18000.0
G1 X121.14 Y-18.54 Z10.0 F18000.0
G1 X121.14 Y-31.24 Z10.0 F18000.0
G1 X121.14 Y-43.94 Z10.0 F18000.0
G1 X121.14 Y-56.64 Z10.0 F18000.0
G1 X121.14 Y-69.34 Z10.0 F18000.0
G1 X121.14 Y-82.04 Z10.0 F18000.0
G1 X121.14 Y-84.23 Z10.0 F18000.0
G4 P0
;Shaft Down
G4 P0
G1 X121.14 Y-84.23 Z10 F18000.0
G4 P0

;(Polyline consisting of 1 segments.)
G1 X111.18 Y-74.27 F18000
G1 X111.18 Y-74.27 Z10.0 F18000.0
G4 P0
;Shaft Up
G4 P0
G1 X98.48 Y-74.27 Z10.0 F18000.0
G1 X85.78 Y-74.27 Z10.0 F18000.0
G1 X73.08 Y-74.27 Z10.0 F18000.0
G1 X60.38 Y-74.27 Z10.0 F18000.0
G1 X47.68 Y-74.27 Z10.0 F18000.0
G1 X34.98 Y-74.27 Z10.0 F18000.0
G1 X22.28 Y-74.27 Z10.0 F18000.0
G1 X9.58 Y-74.27 Z10.0 F18000.0
G1 X-3.12 Y-74.27 Z10.0 F18000.0
G1 X-15.82 Y-74.27 Z10.0 F18000.0
G1 X-28.52 Y-74.27 Z10.0 F18000.0
G1 X-41.22 Y-74.27 Z10.0 F18000.0
G1 X-53.92 Y-74.27 Z10.0 F18000.0
G1 X-66.62 Y-74.27 Z10.0 F18000.0
G1 X-79.32 Y-74.27 Z10.0 F18000.0
G1 X-92.02 Y-74.27 Z10.0 F18000.0
G1 X-104.72 Y-74.27 Z10.0 F18000.0
G1 X-112.08 Y-74.27 Z10.0 F18000.0
G1 X-112.08 Y-61.57 Z10.0 F18000.0
G1 X-112.08 Y-48.87 Z10.0 F18000.0
G1 X-112.08 Y-36.17 Z10.0 F18000.0
G1 X-112.08 Y-23.47 Z10.0 F18000.0
G1 X-112.08 Y-10.77 Z10.0 F18000.0
G1 X-112.08 Y1.93 Z10.0 F18000.0
G1 X-112.08 Y14.63 Z10.0 F18000.0
G1 X-112.08 Y27.33 Z10.0 F18000.0
G1 X-112.08 Y40.03 Z10.0 F18000.0
G1 X-112.08 Y52.73 Z10.0 F18000.0
G1 X-112.08 Y65.43 Z10.0 F18000.0
G1 X-112.08 Y73.1 Z10.0 F18000.0
G1 X-99.38 Y73.1 Z10.0 F18000.0
G1 X-86.68 Y73.1 Z10.0 F18000.0
G1 X-73.98 Y73.1 Z10.0 F18000.0
G1 X-61.28 Y73.1 Z10.0 F18000.0
G1 X-48.58 Y73.1 Z10.0 F18000.0
G1 X-35.88 Y73.1 Z10.0 F18000.0
G1 X-23.18 Y73.1 Z10.0 F18000.0
G1 X-10.48 Y73.1 Z10.0 F18000.0
G1 X2.22 Y73.1 Z10.0 F18000.0
G1 X14.92 Y73.1 Z10.0 F18000.0
G1 X27.62 Y73.1 Z10.0 F18000.0
G1 X40.32 Y73.1 Z10.0 F18000.0
G1 X53.02 Y73.1 Z10.0 F18000.0
G1 X65.72 Y73.1 Z10.0 F18000.0
G1 X78.42 Y73.1 Z10.0 F18000.0
G1 X91.12 Y73.1 Z10.0 F18000.0
G1 X103.82 Y73.1 Z10.0 F18000.0
G1 X111.18 Y73.1 Z10.0 F18000.0
G1 X111.18 Y60.4 Z10.0 F18000.0
G1 X111.18 Y47.7 Z10.0 F18000.0
G1 X111.18 Y35.0 Z10.0 F18000.0
G1 X111.18 Y22.3 Z10.0 F18000.0
G1 X111.18 Y9.6 Z10.0 F18000.0
G1 X111.18 Y-3.1 Z10.0 F18000.0
G1 X111.18 Y-15.8 Z10.0 F18000.0
G1 X111.18 Y-28.5 Z10.0 F18000.0
G1 X111.18 Y-41.2 Z10.0 F18000.0
G1 X111.18 Y-53.9 Z10.0 F18000.0
G1 X111.18 Y-66.6 Z10.0 F18000.0
G1 X111.18 Y-74.27 Z10.0 F18000.0
G4 P0
;Shaft Down
G4 P0
G1 X111.18 Y-74.27 Z10 F18000.0
G4 P0

;(Polyline consisting of 1 segments.)
G1 X101.21 Y-64.31 F18000
G1 X101.21 Y-64.31 Z10.0 F18000.0
G4 P0
;Shaft Up
G4 P0
G1 X88.51 Y-64.31 Z10.0 F18000.0
G1 X75.81 Y-64.31 Z10.0 F18000.0
G1 X63.11 Y-64.31 Z10.0 F18000.0
G1 X50.41 Y-64.31 Z10.0 F18000.0
G1 X37.71 Y-64.31 Z10.0 F18000.0
G1 X25.01 Y-64.31 Z10.0 F18000.0
G1 X12.31 Y-64.31 Z10.0 F18000.0
G1 X-0.39 Y-64.31 Z10.0 F18000.0
G1 X-13.09 Y-64.31 Z10.0 F18000.0
G1 X-25.79 Y-64.31 Z10.0 F18000.0
G1 X-38.49 Y-64.31 Z10.0 F18000.0
G1 X-51.19 Y-64.31 Z10.0 F18000.0
G1 X-63.89 Y-64.31 Z10.0 F18000.0
G1 X-76.59 Y-64.31 Z10.0 F18000.0
G1 X-89.29 Y-64.31 Z10.0 F18000.0
G1 X-101.99 Y-64.31 Z10.0 F18000.0
G1 X-102.12 Y-64.31 Z10.0 F18000.0
G1 X-102.12 Y-51.61 Z10.0 F18000.0
G1 X-102.12 Y-38.91 Z10.0 F18000.0
G1 X-102.12 Y-26.21 Z10.0 F18000.0
G1 X-102.12 Y-13.51 Z10.0 F18000.0
G1 X-102.12 Y-0.81 Z10.0 F18000.0
G1 X-102.12 Y11.89 Z10.0 F18000.0
G1 X-102.12 Y24.59 Z10.0 F18000.0
G1 X-102.12 Y37.29 Z10.0 F18000.0
G1 X-102.12 Y49.99 Z10.0 F18000.0
G1 X-102.12 Y62.69 Z10.0 F18000.0
G1 X-102.12 Y63.14 Z10.0 F18000.0
G1 X-89.42 Y63.14 Z10.0 F18000.0
G1 X-76.72 Y63.14 Z10.0 F18000.0
G1 X-64.02 Y63.14 Z10.0 F18000.0
G1 X-51.32 Y63.14 Z10.0 F18000.0
G1 X-38.62 Y63.14 Z10.0 F18000.0
G1 X-25.92 Y63.14 Z10.0 F18000.0
G1 X-13.22 Y63.14 Z10.0 F18000.0
G1 X-0.52 Y63.14 Z10.0 F18000.0
G1 X12.18 Y63.14 Z10.0 F18000.0
G1 X24.88 Y63.14 Z10.0 F18000.0
G1 X37.58 Y63.14 Z10.0 F18000.0
G1 X50.28 Y63.14 Z10.0 F18000.0
G1 X62.98 Y63.14 Z10.0 F18000.0
G1 X75.68 Y63.14 Z10.0 F18000.0
G1 X88.38 Y63.14 Z10.0 F18000.0
G1 X101.08 Y63.14 Z10.0 F18000.0
G1 X101.21 Y63.14 Z10.0 F18000.0
G1 X101.21 Y50.44 Z10.0 F18000.0
G1 X101.21 Y37.74 Z10.0 F18000.0
G1 X101.21 Y25.04 Z10.0 F18000.0
G1 X101.21 Y12.34 Z10.0 F18000.0
G1 X101.21 Y-0.36 Z10.0 F18000.0
G1 X101.21 Y-13.06 Z10.0 F18000.0
G1 X101.21 Y-25.76 Z10.0 F18000.0
G1 X101.21 Y-38.46 Z10.0 F18000.0
G1 X101.21 Y-51.16 Z10.0 F18000.0
G1 X101.21 Y-63.86 Z10.0 F18000.0
G1 X101.21 Y-64.31 Z10.0 F18000.0
G4 P0
;Shaft Down
G4 P0
G1 X101.21 Y-64.31 Z10 F18000.0
G4 P0

;(Polyline consisting of 1 segments.)
G1 X91.25 Y-54.35 F18000
G1 X91.25 Y-54.35 Z10.0 F18000.0
G4 P0
;Shaft Up
G4 P0
G1 X78.55 Y-54.35 Z10.0 F18000.0
G1 X65.85 Y-54.35 Z10.0 F18000.0
G1 X53.15 Y-54.35 Z10.0 F18000.0
G1 X40.45 Y-54.35 Z10.0 F18000.0
G1 X27.75 Y-54.35 Z10.0 F18000.0
G1 X15.05 Y-54.35 Z10.0 F18000.0
G1 X2.35 Y-54.35 Z10.0 F18000.0
G1 X-10.35 Y-54.35 Z10.0 F18000.0
G1 X-23.05 Y-54.35 Z10.0 F18000.0
G1 X-35.75 Y-54.35 Z10.0 F18000.0
G1 X-48.45 Y-54.35 Z10.0 F18000.0
G1 X-61.15 Y-54.35 Z10.0 F18000.0
G1 X-73.85 Y-54.35 Z10.0 F18000.0
G1 X-86.55 Y-54.35 Z10.0 F18000.0
G1 X-92.16 Y-54.35 Z10.0 F18000.0
G1 X-92.16 Y-41.65 Z10.0 F18000.0
G1 X-92.16 Y-28.95 Z10.0 F18000.0
G1 X-92.16 Y-16.25 Z10.0 F18000.0
G1 X-92.16 Y-3.55 Z10.0 F18000.0
G1 X-92.16 Y9.15 Z10.0 F18000.0
G1 X-92.16 Y21.85 Z10.0 F18000.0
G1 X-92.16 Y34.55 Z10.0 F18000.0
G1 X-92.16 Y47.25 Z10.0 F18000.0
G1 X-92.16 Y53.18 Z10.0 F18000.0
G1 X-79.46 Y53.18 Z10.0 F18000.0
G1 X-66.76 Y53.18 Z10.0 F18000.0
G1 X-54.06 Y53.18 Z10.0 F18000.0
G1 X-41.36 Y53.18 Z10.0 F18000.0
G1 X-28.66 Y53.18 Z10.0 F18000.0
G1 X-15.96 Y53.18 Z10.0 F18000.0
G1 X-3.26 Y53.18 Z10.0 F18000.0
G1 X9.44 Y53.18 Z10.0 F18000.0
G1 X22.14 Y53.18 Z10.0 F18000.0
G1 X34.84 Y53.18 Z10.0 F18000.0
G1 X47.54 Y53.18 Z10.0 F18000.0
G1 X60.24 Y53.18 Z10.0 F18000.0
G1 X72.94 Y53.18 Z10.0 F18000.0
G1 X85.64 Y53.18 Z10.0 F18000.0
G1 X91.25 Y53.18 Z10.0 F18000.0
G1 X91.25 Y40.48 Z10.0 F18000.0
G1 X91.25 Y27.78 Z10.0 F18000.0
G1 X91.25 Y15.08 Z10.0 F18000.0
G1 X91.25 Y2.38 Z10.0 F18000.0
G1 X91.25 Y-10.32 Z10.0 F18000.0
G1 X91.25 Y-23.02 Z10.0 F18000.0
G1 X91.25 Y-35.72 Z10.0 F18000.0
G1 X91.25 Y-48.42 Z10.0 F18000.0
G1 X91.25 Y-54.35 Z10.0 F18000.0
G4 P0
;Shaft Down
G4 P0
G1 X91.25 Y-54.35 Z10 F18000.0
G4 P0

;(Polyline consisting of 1 segments.)
G1 X81.29 Y-44.39 F18000
G1 X81.29 Y-44.39 Z10.0 F18000.0
G4 P0
;Shaft Up
G4 P0
G1 X68.59 Y-44.39 Z10.0 F18000.0
G1 X55.89 Y-44.39 Z10.0 F18000.0
G1 X43.19 Y-44.39 Z10.0 F18000.0
G1 X30.49 Y-44.39 Z10.0 F18000.0
G1 X17.79 Y-44.39 Z10.0 F18000.0
G1 X5.09 Y-44.39 Z10.0 F18000.0
G1 X-7.61 Y-44.39 Z10.0 F18000.0
G1 X-20.31 Y-44.39 Z10.0 F18000.0
G1 X-33.01 Y-44.39 Z10.0 F18000.0
G1 X-45.71 Y-44.39 Z10.0 F18000.0
G1 X-58.41 Y-44.39 Z10.0 F18000.0
G1 X-71.11 Y-44.39 Z10.0 F18000.0
G1 X-82.2 Y-44.39 Z10.0 F18000.0
G1 X-82.2 Y-31.69 Z10.0 F18000.0
G1 X-82.2 Y-18.99 Z10.0 F18000.0
G1 X-82.2 Y-6.29 Z10.0 F18000.0
G1 X-82.2 Y6.41 Z10.0 F18000.0
G1 X-82.2 Y19.11 Z10.0 F18000.0
G1 X-82.2 Y31.81 Z10.0 F18000.0
G1 X-82.2 Y43.22 Z10.0 F18000.0
G1 X-69.5 Y43.22 Z10.0 F18000.0
G1 X-56.8 Y43.22 Z10.0 F18000.0
G1 X-44.1 Y43.22 Z10.0 F18000.0
G1 X-31.4 Y43.22 Z10.0 F18000.0
G1 X-18.7 Y43.22 Z10.0 F18000.0
G1 X-6.0 Y43.22 Z10.0 F18000.0
G1 X6.7 Y43.22 Z10.0 F18000.0
G1 X19.4 Y43.22 Z10.0 F18000.0
G1 X32.1 Y43.22 Z10.0 F18000.0
G1 X44.8 Y43.22 Z10.0 F18000.0
G1 X57.5 Y43.22 Z10.0 F18000.0
G1 X70.2 Y43.22 Z10.0 F18000.0
G1 X81.29 Y43.22 Z10.0 F18000.0
G1 X81.29 Y30.52 Z10.0 F18000.0
G1 X81.29 Y17.82 Z10.0 F18000.0
G1 X81.29 Y5.12 Z10.0 F18000.0
G1 X81.29 Y-7.58 Z10.0 F18000.0
G1 X81.29 Y-20.28 Z10.0 F18000.0
G1 X81.29 Y-32.98 Z10.0 F18000.0
G1 X81.29 Y-44.39 Z10.0 F18000.0
G4 P0
;Shaft Down
G4 P0
G1 X81.29 Y-44.39 Z10 F18000.0
G4 P0

;(Polyline consisting of 1 segments.)
G1 X71.33 Y-34.43 F18000
G1 X71.33 Y-34.43 Z10.0 F18000.0
G4 P0
;Shaft Up
G4 P0
G1 X58.63 Y-34.43 Z10.0 F18000.0
G1 X45.93 Y-34.43 Z10.0 F18000.0
G1 X33.23 Y-34.43 Z10.0 F18000.0
G1 X20.53 Y-34.43 Z10.0 F18000.0
G1 X7.83 Y-34.43 Z10.0 F18000.0
G1 X-4.87 Y-34.43 Z10.0 F18000.0
G1 X-17.57 Y-34.43 Z10.0 F18000.0
G1 X-30.27 Y-34.43 Z10.0 F18000.0
G1 X-42.97 Y-34.43 Z10.0 F18000.0
G1 X-55.67 Y-34.43 Z10.0 F18000.0
G1 X-68.37 Y-34.43 Z10.0 F18000.0
G1 X-72.24 Y-34.43 Z10.0 F18000.0
G1 X-72.24 Y-21.73 Z10.0 F18000.0
G1 X-72.24 Y-9.03 Z10.0 F18000.0
G1 X-72.24 Y3.67 Z10.0 F18000.0
G1 X-72.24 Y16.37 Z10.0 F18000.0
G1 X-72.24 Y29.07 Z10.0 F18000.0
G1 X-72.24 Y33.25 Z10.0 F18000.0
G1 X-59.54 Y33.25 Z10.0 F18000.0
G1 X-46.84 Y33.25 Z10.0 F18000.0
G1 X-34.14 Y33.25 Z10.0 F18000.0
G1 X-21.44 Y33.25 Z10.0 F18000.0
G1 X-8.74 Y33.25 Z10.0 F18000.0
G1 X3.96 Y33.25 Z10.0 F18000.0
G1 X16.66 Y33.25 Z10.0 F18000.0
G1 X29.36 Y33.25 Z10.0 F18000.0
G1 X42.06 Y33.25 Z10.0 F18000.0
G1 X54.76 Y33.25 Z10.0 F18000.0
G1 X67.46 Y33.25 Z10.0 F18000.0
G1 X71.33 Y33.25 Z10.0 F18000.0
G1 X71.33 Y20.55 Z10.0 F18000.0
G1 X71.33 Y7.85 Z10.0 F18000.0
G1 X71.33 Y-4.85 Z10.0 F18000.0
G1 X71.33 Y-17.55 Z10.0 F18000.0
G1 X71.33 Y-30.25 Z10.0 F18000.0
G1 X71.33 Y-34.43 Z10.0 F18000.0
G4 P0
;Shaft Down
G4 P0
G1 X71.33 Y-34.43 Z10 F18000.0
G4 P0

;(Polyline consisting of 1 segments.)
G1 X61.37 Y-24.46 F18000
G1 X61.37 Y-24.46 Z10.0 F18000.0
G4 P0
;Shaft Up
G4 P0
G1 X48.67 Y-24.46 Z10.0 F18000.0
G1 X35.97 Y-24.46 Z10.0 F18000.0
G1 X23.27 Y-24.46 Z10.0 F18000.0
G1 X10.57 Y-24.46 Z10.0 F18000.0
G1 X-2.13 Y-24.46 Z10.0 F18000.0
G1 X-14.83 Y-24.46 Z10.0 F18000.0
G1 X-27.53 Y-24.46 Z10.0 F18000.0
G1 X-40.23 Y-24.46 Z10.0 F18000.0
G1 X-52.93 Y-24.46 Z10.0 F18000.0
G1 X-62.28 Y-24.46 Z10.0 F18000.0
G1 X-62.28 Y-11.76 Z10.0 F18000.0
G1 X-62.28 Y0.94 Z10.0 F18000.0
G1 X-62.28 Y13.64 Z10.0 F18000.0
G1 X-62.28 Y23.29 Z10.0 F18000.0
G1 X-49.58 Y23.29 Z10.0 F18000.0
G1 X-36.88 Y23.29 Z10.0 F18000.0
G1 X-24.18 Y23.29 Z10.0 F18000.0
G1 X-11.48 Y23.29 Z10.0 F18000.0
G1 X1.22 Y23.29 Z10.0 F18000.0
G1 X13.92 Y23.29 Z10.0 F18000.0
G1 X26.62 Y23.29 Z10.0 F18000.0
G1 X39.32 Y23.29 Z10.0 F18000.0
G1 X52.02 Y23.29 Z10.0 F18000.0
G1 X61.37 Y23.29 Z10.0 F18000.0
G1 X61.37 Y10.59 Z10.0 F18000.0
G1 X61.37 Y-2.11 Z10.0 F18000.0
G1 X61.37 Y-14.81 Z10.0 F18000.0
G1 X61.37 Y-24.46 Z10.0 F18000.0
G4 P0
;Shaft Down
G4 P0
G1 X61.37 Y-24.46 Z10 F18000.0
G4 P0

;(Polyline consisting of 1 segments.)
G1 X51.41 Y-14.5 F18000
G1 X51.41 Y-14.5 Z10.0 F18000.0
G4 P0
;Shaft Up
G4 P0
G1 X38.71 Y-14.5 Z10.0 F18000.0
G1 X26.01 Y-14.5 Z10.0 F18000.0
G1 X13.31 Y-14.5 Z10.0 F18000.0
G1 X0.61 Y-14.5 Z10.0 F18000.0
G1 X-12.09 Y-14.5 Z10.0 F18000.0
G1 X-24.79 Y-14.5 Z10.0 F18000.0
G1 X-37.49 Y-14.5 Z10.0 F18000.0
G1 X-50.19 Y-14.5 Z10.0 F18000.0
G1 X-52.31 Y-14.5 Z10.0 F18000.0
G1 X-52.31 Y-1.8 Z10.0 F18000.0
G1 X-52.31 Y10.9 Z10.0 F18000.0
G1 X-52.31 Y13.33 Z10.0 F18000.0
G1 X-39.61 Y13.33 Z10.0 F18000.0
G1 X-26.91 Y13.33 Z10.0 F18000.0
G1 X-14.21 Y13.33 Z10.0 F18000.0
G1 X-1.51 Y13.33 Z10.0 F18000.0
G1 X11.19 Y13.33 Z10.0 F18000.0
G1 X23.89 Y13.33 Z10.0 F18000.0
G1 X36.59 Y13.33 Z10.0 F18000.0
G1 X49.29 Y13.33 Z10.0 F18000.0
G1 X51.41 Y13.33 Z10.0 F18000.0
G1 X51.41 Y0.63 Z10.0 F18000.0
G1 X51.41 Y-12.07 Z10.0 F18000.0
G1 X51.41 Y-14.5 Z10.0 F18000.0
G4 P0
;Shaft Down
G4 P0
G1 X51.41 Y-14.5 Z10 F18000.0
G4 P0

;(Polyline consisting of 1 segments.)
G1 X41.44 Y-4.54 F18000
G1 X41.44 Y-4.54 Z10.0 F18000.0
G4 P0
;Shaft Up
G4 P0
G1 X28.74 Y-4.54 Z10.0 F18000.0
G1 X16.04 Y-4.54 Z10.0 F18000.0
G1 X3.34 Y-4.54 Z10.0 F18000.0
G1 X-9.36 Y-4.54 Z10.0 F18000.0
G1 X-22.06 Y-4.54 Z10.0 F18000.0
G1 X-34.76 Y-4.54 Z10.0 F18000.0
G1 X-42.35 Y-4.54 Z10.0 F18000.0
G1 X-42.35 Y3.37 Z10.0 F18000.0
G1 X-29.65 Y3.37 Z10.0 F18000.0
G1 X-16.95 Y3.37 Z10.0 F18000.0
G1 X-4.25 Y3.37 Z10.0 F18000.0
G1 X8.45 Y3.37 Z10.0 F18000.0
G1 X21.15 Y3.37 Z10.0 F18000.0
G1 X33.85 Y3.37 Z10.0 F18000.0
G1 X41.44 Y3.37 Z10.0 F18000.0
G1 X41.44 Y-4.54 Z10.0 F18000.0
G4 P0
;Shaft Down
G4 P0
;Ex Up
G4 P0

;Food Off
G4 P0
